{"fetched_at":"2026-07-14T06:35:13.806Z","source":"https://celestrak.org/NORAD/elements/gp.php?NAME=WORLDVIEW&FORMAT=JSON","constellation":"worldview","records":[{"OBJECT_NAME":"WORLDVIEW-1 (WV-1)","OBJECT_ID":"2007-041A","EPOCH":"2026-07-13T21:02:29.662080","CLASSIFICATION_TYPE":"U","MEAN_MOTION":15.24550132,"ECCENTRICITY":0.0001402,"INCLINATION":97.3903,"RA_OF_ASC_NODE":314.2452,"ARG_OF_PERICENTER":212.0366,"MEAN_ANOMALY":148.0787,"EPHEMERIS_TYPE":0,"NORAD_CAT_ID":32060,"ELEMENT_SET_NO":999,"REV_AT_EPOCH":4694,"BSTAR":0.00014942,"MEAN_MOTION_DOT":0.00003607,"MEAN_MOTION_DDOT":0},{"OBJECT_NAME":"WORLDVIEW-2 (WV-2)","OBJECT_ID":"2009-055A","EPOCH":"2026-07-13T19:33:52.531776","CLASSIFICATION_TYPE":"U","MEAN_MOTION":14.37906676,"ECCENTRICITY":0.0005258,"INCLINATION":98.4757,"RA_OF_ASC_NODE":267.9023,"ARG_OF_PERICENTER":133.2074,"MEAN_ANOMALY":226.9552,"EPHEMERIS_TYPE":0,"NORAD_CAT_ID":35946,"ELEMENT_SET_NO":999,"REV_AT_EPOCH":87947,"BSTAR":0.000025537,"MEAN_MOTION_DOT":3.4e-7,"MEAN_MOTION_DDOT":0},{"OBJECT_NAME":"WORLDVIEW-3 (WV-3)","OBJECT_ID":"2014-048A","EPOCH":"2026-07-13T20:23:24.882720","CLASSIFICATION_TYPE":"U","MEAN_MOTION":14.85062979,"ECCENTRICITY":0.0001199,"INCLINATION":97.8557,"RA_OF_ASC_NODE":269.3136,"ARG_OF_PERICENTER":158.1665,"MEAN_ANOMALY":201.9601,"EPHEMERIS_TYPE":0,"NORAD_CAT_ID":40115,"ELEMENT_SET_NO":999,"REV_AT_EPOCH":64586,"BSTAR":0.000055989,"MEAN_MOTION_DOT":0.00000425,"MEAN_MOTION_DDOT":0}]}
