WORLDVIEW-1 (WV-1)      
1 32060U 07041A   26194.87673220  .00003607  00000+0  14942-3 0  9998
2 32060  97.3903 314.2452 0001402 212.0366 148.0787 15.24550132 46948
WORLDVIEW-2 (WV-2)      
1 35946U 09055A   26194.81519134  .00000034  00000+0  25537-4 0  9992
2 35946  98.4757 267.9023 0005258 133.2074 226.9552 14.37906676879473
WORLDVIEW-3 (WV-3)      
1 40115U 14048A   26194.84959355  .00000425  00000+0  55989-4 0  9998
2 40115  97.8557 269.3136 0001199 158.1665 201.9601 14.85062979645865
